{
  "type": "FeatureCollection",
  "features": [
    {
      "type": "Feature",
      "properties": {
        "norad_id": 2807,
        "name": "OPS 7218 (TRANSIT 16)",
        "group": "nnss",
        "lat": 23.836366250541122,
        "lon": -5.738575081067709,
        "alt_km": 1071.3419890945388,
        "timestamp": "2025-12-09T16:56:36.843152+00:00",
        "meta_object_name": "OPS 7218 (TRANSIT 16)",
        "meta_object_id": "1967-048A",
        "meta_epoch": "2025-12-09T12:15:09.098208",
        "meta_mean_motion": 13.50721383,
        "meta_eccentricity": 0.0021814,
        "meta_inclination": 89.6732,
        "meta_ra_of_asc_node": 354.1234,
        "meta_arg_of_pericenter": 122.7189,
        "meta_mean_anomaly": 31.5887,
        "meta_ephemeris_type": 0,
        "meta_classification_type": "U",
        "meta_norad_cat_id": 2807,
        "meta_element_set_no": 999,
        "meta_rev_at_epoch": 88232,
        "meta_bstar": 0.00022437,
        "meta_mean_motion_dot": 1.55e-06,
        "meta_mean_motion_ddot": 0,
        "tle_line1": "1 02807U 67048A   25343.51052197  .00000155  00000+0  22437-3 0  9990",
        "tle_line2": "2 02807  89.6732 354.1234 0021814 122.7189  31.5887 13.50721383882320"
      },
      "geometry": {
        "type": "Point",
        "coordinates": [
          -5.738575081067709,
          23.836366250541122
        ]
      }
    },
    {
      "type": "Feature",
      "properties": {
        "norad_id": 2965,
        "name": "OPS 4947 (TRANSIT 17)",
        "group": "nnss",
        "lat": 58.86153506698259,
        "lon": 25.909633305247837,
        "alt_km": 1088.075415189106,
        "timestamp": "2025-12-09T16:56:36.843174+00:00",
        "meta_object_name": "OPS 4947 (TRANSIT 17)",
        "meta_object_id": "1967-092A",
        "meta_epoch": "2025-12-09T09:36:30.323808",
        "meta_mean_motion": 13.53452312,
        "meta_eccentricity": 0.0045999,
        "meta_inclination": 89.2499,
        "meta_ra_of_asc_node": 24.6904,
        "meta_arg_of_pericenter": 244.5157,
        "meta_mean_anomaly": 126.0877,
        "meta_ephemeris_type": 0,
        "meta_classification_type": "U",
        "meta_norad_cat_id": 2965,
        "meta_element_set_no": 999,
        "meta_rev_at_epoch": 87052,
        "meta_bstar": 0.00025971,
        "meta_mean_motion_dot": 1.87e-06,
        "meta_mean_motion_ddot": 0,
        "tle_line1": "1 02965U 67092A   25343.40035097  .00000187  00000+0  25971-3 0  9993",
        "tle_line2": "2 02965  89.2499  24.6904 0045999 244.5157 126.0877 13.53452312870526"
      },
      "geometry": {
        "type": "Point",
        "coordinates": [
          25.909633305247837,
          58.86153506698259
        ]
      }
    },
    {
      "type": "Feature",
      "properties": {
        "norad_id": 3133,
        "name": "OPS 7034 (TRANSIT 18)",
        "group": "nnss",
        "lat": -49.39968014231387,
        "lon": 93.59797791647358,
        "alt_km": 1039.0235455791135,
        "timestamp": "2025-12-09T16:56:36.843187+00:00",
        "meta_object_name": "OPS 7034 (TRANSIT 18)",
        "meta_object_id": "1968-012A",
        "meta_epoch": "2025-12-09T07:29:45.032928",
        "meta_mean_motion": 13.5156455,
        "meta_eccentricity": 0.0073521,
        "meta_inclination": 90.0276,
        "meta_ra_of_asc_node": 273.6291,
        "meta_arg_of_pericenter": 179.0874,
        "meta_mean_anomaly": 295.335,
        "meta_ephemeris_type": 0,
        "meta_classification_type": "U",
        "meta_norad_cat_id": 3133,
        "meta_element_set_no": 999,
        "meta_rev_at_epoch": 56872,
        "meta_bstar": 0.00028816,
        "meta_mean_motion_dot": 2e-06,
        "meta_mean_motion_ddot": 0,
        "tle_line1": "1 03133U 68012A   25343.31232677  .00000200  00000+0  28816-3 0  9994",
        "tle_line2": "2 03133  90.0276 273.6291 0073521 179.0874 295.3350 13.51564550568720"
      },
      "geometry": {
        "type": "Point",
        "coordinates": [
          93.59797791647358,
          -49.39968014231387
        ]
      }
    },
    {
      "type": "Feature",
      "properties": {
        "norad_id": 4507,
        "name": "NNSS 19 (TRANSIT 19)",
        "group": "nnss",
        "lat": -21.053394735367135,
        "lon": 54.52955678449877,
        "alt_km": 1095.5304477470354,
        "timestamp": "2025-12-09T16:56:36.843200+00:00",
        "meta_object_name": "NNSS 19 (TRANSIT 19)",
        "meta_object_id": "1970-067A",
        "meta_epoch": "2025-12-09T10:36:12.002112",
        "meta_mean_motion": 13.51314006,
        "meta_eccentricity": 0.0170745,
        "meta_inclination": 90.0057,
        "meta_ra_of_asc_node": 234.5316,
        "meta_arg_of_pericenter": 303.0164,
        "meta_mean_anomaly": 55.4679,
        "meta_ephemeris_type": 0,
        "meta_classification_type": "U",
        "meta_norad_cat_id": 4507,
        "meta_element_set_no": 999,
        "meta_rev_at_epoch": 72177,
        "meta_bstar": 0.00031891,
        "meta_mean_motion_dot": 2.34e-06,
        "meta_mean_motion_ddot": 0,
        "tle_line1": "1 04507U 70067A   25343.44180558  .00000234  00000+0  31891-3 0  9991",
        "tle_line2": "2 04507  90.0057 234.5316 0170745 303.0164  55.4679 13.51314006721778"
      },
      "geometry": {
        "type": "Point",
        "coordinates": [
          54.52955678449877,
          -21.053394735367135
        ]
      }
    },
    {
      "type": "Feature",
      "properties": {
        "norad_id": 6909,
        "name": "NNSS 20 (TRANSIT 20)",
        "group": "nnss",
        "lat": 55.09748617867316,
        "lon": -104.69421867030563,
        "alt_km": 890.9676881479727,
        "timestamp": "2025-12-09T16:56:36.843210+00:00",
        "meta_object_name": "NNSS 20 (TRANSIT 20)",
        "meta_object_id": "1973-081A",
        "meta_epoch": "2025-12-09T11:25:36.408576",
        "meta_mean_motion": 13.71432035,
        "meta_eccentricity": 0.0156617,
        "meta_inclination": 89.8562,
        "meta_ra_of_asc_node": 255.103,
        "meta_arg_of_pericenter": 87.977,
        "meta_mean_anomaly": 273.932,
        "meta_ephemeris_type": 0,
        "meta_classification_type": "U",
        "meta_norad_cat_id": 6909,
        "meta_element_set_no": 999,
        "meta_rev_at_epoch": 80316,
        "meta_bstar": 0.00036387,
        "meta_mean_motion_dot": 3.69e-06,
        "meta_mean_motion_ddot": 0,
        "tle_line1": "1 06909U 73081A   25343.47611584  .00000369  00000+0  36387-3 0  9993",
        "tle_line2": "2 06909  89.8562 255.1030 0156617  87.9770 273.9320 13.71432035803167"
      },
      "geometry": {
        "type": "Point",
        "coordinates": [
          -104.69421867030563,
          55.09748617867316
        ]
      }
    },
    {
      "type": "Feature",
      "properties": {
        "norad_id": 10457,
        "name": "TRANSAT",
        "group": "nnss",
        "lat": -53.94512371356433,
        "lon": -100.81189748529751,
        "alt_km": 1067.9784026914558,
        "timestamp": "2025-12-09T16:56:36.843221+00:00",
        "meta_object_name": "TRANSAT",
        "meta_object_id": "1977-106A",
        "meta_epoch": "2025-12-09T12:17:08.947104",
        "meta_mean_motion": 13.48942917,
        "meta_eccentricity": 0.0025087,
        "meta_inclination": 89.6481,
        "meta_ra_of_asc_node": 78.7113,
        "meta_arg_of_pericenter": 198.9497,
        "meta_mean_anomaly": 172.8613,
        "meta_ephemeris_type": 0,
        "meta_classification_type": "U",
        "meta_norad_cat_id": 10457,
        "meta_element_set_no": 999,
        "meta_rev_at_epoch": 36700,
        "meta_bstar": 0.00021587,
        "meta_mean_motion_dot": 1.45e-06,
        "meta_mean_motion_ddot": 0,
        "tle_line1": "1 10457U 77106A   25343.51190911  .00000145  00000+0  21587-3 0  9997",
        "tle_line2": "2 10457  89.6481  78.7113 0025087 198.9497 172.8613 13.48942917367003"
      },
      "geometry": {
        "type": "Point",
        "coordinates": [
          -100.81189748529751,
          -53.94512371356433
        ]
      }
    },
    {
      "type": "Feature",
      "properties": {
        "norad_id": 12458,
        "name": "NOVA 1",
        "group": "nnss",
        "lat": 54.946972517905564,
        "lon": 91.63867046332187,
        "alt_km": 1160.4300592464697,
        "timestamp": "2025-12-09T16:56:36.843232+00:00",
        "meta_object_name": "NOVA 1",
        "meta_object_id": "1981-044A",
        "meta_epoch": "2025-12-09T07:51:55.116000",
        "meta_mean_motion": 13.23277978,
        "meta_eccentricity": 0.0015808,
        "meta_inclination": 89.8523,
        "meta_ra_of_asc_node": 91.4334,
        "meta_arg_of_pericenter": 112.3662,
        "meta_mean_anomaly": 301.8764,
        "meta_ephemeris_type": 0,
        "meta_classification_type": "U",
        "meta_norad_cat_id": 12458,
        "meta_element_set_no": 999,
        "meta_rev_at_epoch": 15141,
        "meta_bstar": 0.00024038,
        "meta_mean_motion_dot": 1.11e-06,
        "meta_mean_motion_ddot": 0,
        "tle_line1": "1 12458U 81044A   25343.32772125  .00000111  00000+0  24038-3 0  9995",
        "tle_line2": "2 12458  89.8523  91.4334 0015808 112.3662 301.8764 13.23277978151414"
      },
      "geometry": {
        "type": "Point",
        "coordinates": [
          91.63867046332187,
          54.946972517905564
        ]
      }
    }
  ]
}